[{"OBJECT_NAME":"STARLETTE","OBJECT_ID":"1975-010A","EPOCH":"2026-03-06T06:59:37.641696","MEAN_MOTION":13.82349091,"ECCENTRICITY":0.02055579,"INCLINATION":49.8226,"RA_OF_ASC_NODE":150.7442,"ARG_OF_PERICENTER":83.1209,"MEAN_ANOMALY":279.3021,"EPHEMERIS_TYPE":0,"CLASSIFICATION_TYPE":"U","NORAD_CAT_ID":7646,"ELEMENT_SET_NO":999,"REV_AT_EPOCH":58030,"BSTAR":1.6124073e-5,"MEAN_MOTION_DOT":-1.25e-6,"MEAN_MOTION_DDOT":0},{"OBJECT_NAME":"LAGEOS 1","OBJECT_ID":"1976-039A","EPOCH":"2026-03-05T22:44:23.593920","MEAN_MOTION":6.38664888,"ECCENTRICITY":0.00446609,"INCLINATION":109.818,"RA_OF_ASC_NODE":144.0007,"ARG_OF_PERICENTER":324.3874,"MEAN_ANOMALY":188.0856,"EPHEMERIS_TYPE":0,"CLASSIFICATION_TYPE":"U","NORAD_CAT_ID":8820,"ELEMENT_SET_NO":999,"REV_AT_EPOCH":90654,"BSTAR":0,"MEAN_MOTION_DOT":-4.0e-8,"MEAN_MOTION_DDOT":0},{"OBJECT_NAME":"AJISAI (EGS)","OBJECT_ID":"1986-061A","EPOCH":"2026-03-06T06:35:01.336128","MEAN_MOTION":12.44515627,"ECCENTRICITY":0.00112572,"INCLINATION":50.008,"RA_OF_ASC_NODE":103.8504,"ARG_OF_PERICENTER":278.2104,"MEAN_ANOMALY":205.0322,"EPHEMERIS_TYPE":0,"CLASSIFICATION_TYPE":"U","NORAD_CAT_ID":16908,"ELEMENT_SET_NO":999,"REV_AT_EPOCH":46757,"BSTAR":0.00011902404,"MEAN_MOTION_DOT":-8.0e-7,"MEAN_MOTION_DDOT":0},{"OBJECT_NAME":"COSMOS 1989 (ETALON 1)","OBJECT_ID":"1989-001C","EPOCH":"2026-03-05T20:51:18.361728","MEAN_MOTION":2.13156081,"ECCENTRICITY":0.00234107,"INCLINATION":64.8851,"RA_OF_ASC_NODE":75.7276,"ARG_OF_PERICENTER":217.5721,"MEAN_ANOMALY":25.2213,"EPHEMERIS_TYPE":0,"CLASSIFICATION_TYPE":"U","NORAD_CAT_ID":19751,"ELEMENT_SET_NO":999,"REV_AT_EPOCH":28916,"BSTAR":0,"MEAN_MOTION_DOT":1.0e-8,"MEAN_MOTION_DDOT":0},{"OBJECT_NAME":"COSMOS 2024 (ETALON 2)","OBJECT_ID":"1989-039C","EPOCH":"2026-03-06T01:44:15.463680","MEAN_MOTION":2.13204602,"ECCENTRICITY":0.00204655,"INCLINATION":64.9965,"RA_OF_ASC_NODE":314.0901,"ARG_OF_PERICENTER":213.3992,"MEAN_ANOMALY":325.2295,"EPHEMERIS_TYPE":0,"CLASSIFICATION_TYPE":"U","NORAD_CAT_ID":20026,"ELEMENT_SET_NO":999,"REV_AT_EPOCH":28630,"BSTAR":0,"MEAN_MOTION_DOT":-5.3e-7,"MEAN_MOTION_DDOT":0},{"OBJECT_NAME":"LAGEOS 2","OBJECT_ID":"1992-070B","EPOCH":"2026-03-06T04:36:27.943776","MEAN_MOTION":6.47293333,"ECCENTRICITY":0.01377685,"INCLINATION":52.6792,"RA_OF_ASC_NODE":331.7531,"ARG_OF_PERICENTER":142.2931,"MEAN_ANOMALY":16.8545,"EPHEMERIS_TYPE":0,"CLASSIFICATION_TYPE":"U","NORAD_CAT_ID":22195,"ELEMENT_SET_NO":999,"REV_AT_EPOCH":78875,"BSTAR":0,"MEAN_MOTION_DOT":-9.0e-8,"MEAN_MOTION_DDOT":0},{"OBJECT_NAME":"STELLA","OBJECT_ID":"1993-061B","EPOCH":"2026-03-06T07:11:34.596672","MEAN_MOTION":14.27467403,"ECCENTRICITY":0.00065533,"INCLINATION":98.7848,"RA_OF_ASC_NODE":129.1289,"ARG_OF_PERICENTER":167.0604,"MEAN_ANOMALY":281.8768,"EPHEMERIS_TYPE":0,"CLASSIFICATION_TYPE":"U","NORAD_CAT_ID":22824,"ELEMENT_SET_NO":999,"REV_AT_EPOCH":69009,"BSTAR":4.517926e-6,"MEAN_MOTION_DOT":-3.4e-7,"MEAN_MOTION_DDOT":0},{"OBJECT_NAME":"LARETS","OBJECT_ID":"2003-042F","EPOCH":"2026-03-06T07:30:00.247968","MEAN_MOTION":14.63847548,"ECCENTRICITY":0.00122772,"INCLINATION":98.4009,"RA_OF_ASC_NODE":225.4267,"ARG_OF_PERICENTER":3.1265,"MEAN_ANOMALY":357.0011,"EPHEMERIS_TYPE":0,"CLASSIFICATION_TYPE":"U","NORAD_CAT_ID":27944,"ELEMENT_SET_NO":999,"REV_AT_EPOCH":19831,"BSTAR":3.1618472e-5,"MEAN_MOTION_DOT":1.15e-6,"MEAN_MOTION_DDOT":0},{"OBJECT_NAME":"LARES","OBJECT_ID":"2012-006A","EPOCH":"2026-03-06T05:40:35.297760","MEAN_MOTION":12.54932185,"ECCENTRICITY":0.00074875,"INCLINATION":69.488,"RA_OF_ASC_NODE":108.0978,"ARG_OF_PERICENTER":154.0118,"MEAN_ANOMALY":206.1286,"EPHEMERIS_TYPE":0,"CLASSIFICATION_TYPE":"U","NORAD_CAT_ID":38077,"ELEMENT_SET_NO":999,"REV_AT_EPOCH":64415,"BSTAR":9.832778e-6,"MEAN_MOTION_DOT":-3.7e-7,"MEAN_MOTION_DDOT":0},{"OBJECT_NAME":"LARES-2","OBJECT_ID":"2022-080A","EPOCH":"2026-03-06T00:34:32.699712","MEAN_MOTION":6.38965015,"ECCENTRICITY":0.00053097,"INCLINATION":70.1755,"RA_OF_ASC_NODE":340.7064,"ARG_OF_PERICENTER":356.7815,"MEAN_ANOMALY":3.2821,"EPHEMERIS_TYPE":0,"CLASSIFICATION_TYPE":"U","NORAD_CAT_ID":53105,"ELEMENT_SET_NO":999,"REV_AT_EPOCH":8507,"BSTAR":0,"MEAN_MOTION_DOT":-2.8e-7,"MEAN_MOTION_DDOT":0}]
