STARLETTE               
1 07646U 75010A   26065.29140789 -.00000125  00000+0  16124-4 0  9991
2 07646  49.8226 150.7442 0205557  83.1209 279.3021 13.82349091580306
LAGEOS 1                
1 08820U 76039A   26064.94749530 -.00000004  00000+0  00000+0 0  9995
2 08820 109.8180 144.0007 0044660 324.3874 188.0856  6.38664888906541
AJISAI (EGS)            
1 16908U 86061A   26065.27432102 -.00000080  00000+0  11902-3 0  9999
2 16908  50.0080 103.8504 0011257 278.2104 205.0322 12.44515627467570
COSMOS 1989 (ETALON 1)  
1 19751U 89001C   26064.86896252  .00000001  00000+0  00000+0 0  9994
2 19751  64.8851  75.7276 0023410 217.5721  25.2213  2.13156081289164
COSMOS 2024 (ETALON 2)  
1 20026U 89039C   26065.07240120 -.00000053  00000+0  00000+0 0  9991
2 20026  64.9965 314.0901 0020465 213.3992 325.2295  2.13204602286302
LAGEOS 2                
1 22195U 92070B   26065.19199009 -.00000009  00000+0  00000+0 0  9992
2 22195  52.6792 331.7531 0137768 142.2931  16.8545  6.47293333788753
STELLA                  
1 22824U 93061B   26065.29970598 -.00000034  00000+0  45179-5 0  9993
2 22824  98.7848 129.1289 0006553 167.0604 281.8768 14.27467403690091
LARETS                  
1 27944U 03042F   26065.31250287  .00000115  00000+0  31618-4 0  9991
2 27944  98.4009 225.4267 0012277   3.1265 357.0011 14.63847548198311
LARES                   
1 38077U 12006A   26065.23651965 -.00000037  00000+0  98328-5 0  9995
2 38077  69.4880 108.0978 0007487 154.0118 206.1286 12.54932185644156
LARES-2                 
1 53105U 22080A   26065.02398958 -.00000028  00000+0  00000+0 0  9998
2 53105  70.1755 340.7064 0005309 356.7815   3.2821  6.38965015 85076
